NORAD_CAT_ID,OBJECT_NAME,OBJECT_TYPE,EPOCH,MEAN_MOTION,ECCENTRICITY,INCLINATION,RA_OF_ASC_NODE,ARG_OF_PERICENTER,MEAN_ANOMALY,BSTAR,MEAN_MOTION_DOT,MEAN_MOTION_DDOT,TLE_LINE0,TLE_LINE1,TLE_LINE2,SEMIMAJOR_AXIS,PERIOD,APOGEE,PERIGEE,DECAYED
55397.0,STARLINK-5224,PAYLOAD,2023-09-15 14:00:01,15.51376099,0.0003482,70.0013,172.1743,263.9593,132.584,-0.0091007,-0.00504808,0.0,0 STARLINK-5224,1 55397U 23014G   23258.58334491 -.00504808  00000-0 -91007-2 0  9992,2 55397  70.0013 172.1743 0003482 263.9593 132.5840 15.51376099  6039,6790.844,92.821,415.074,410.345,0.0
55397.0,STARLINK-5224,PAYLOAD,2023-09-15 22:00:00,15.51057941,0.0003532,70.0016,171.2632,264.708,192.7222,-0.018344,-0.00980556,0.0,0 STARLINK-5224,1 55397U 23014G   23258.91667824 -.00980556  00000-0 -18344-1 0  9998,2 55397  70.0016 171.2632 0003532 264.7080 192.7222 15.51057941 35851,6791.773,92.84,416.037,411.239,0.0
55397.0,STARLINK-5224,PAYLOAD,2023-09-16 14:00:01,15.49674665,0.0003419,70.001,169.4428,261.1221,316.0899,-0.016726,-0.00849589,0.0,0 STARLINK-5224,1 55397U 23014G   23259.58334491 -.00849589  00000-0 -16726-1 0  9995,2 55397  70.0010 169.4428 0003419 261.1221 316.0899 15.49674665 35967,6795.814,92.923,420.003,415.356,0.0
55397.0,STARLINK-5224,PAYLOAD,2023-09-17 06:00:00,15.48410459,0.0003538,70.0008,167.6262,269.6755,64.1481,-0.018715,-0.00916235,0.0,0 STARLINK-5224,1 55397U 23014G   23260.25001157 -.00916235  00000-0 -18715-1 0  9994,2 55397  70.0008 167.6262 0003538 269.6755  64.1481 15.48410459 36065,6799.513,92.999,423.783,418.972,0.0
55397.0,STARLINK-5224,PAYLOAD,2023-09-17 14:00:01,15.47715761,0.0003482,70.0008,166.7195,264.2556,126.7216,-0.01782,-0.0084531,0.0,0 STARLINK-5224,1 55397U 23014G   23260.58334491 -.00845310  00000-0 -17820-1 0  9991,2 55397  70.0008 166.7195 0003482 264.2556 126.7216 15.47715761  6014,6801.547,93.04,425.78,421.044,0.0
55397.0,STARLINK-5224,PAYLOAD,2023-09-18 06:00:00,15.4645811,0.0003283,70.0002,164.9083,270.6507,232.2424,-0.020236,-0.00924763,0.0,0 STARLINK-5224,1 55397U 23014G   23261.25001157 -.00924763  00000-0 -20236-1 0  9991,2 55397  70.0002 164.9083 0003283 270.6507 232.2424 15.46458110 36210,6805.234,93.116,429.333,424.865,0.0
55397.0,STARLINK-5224,PAYLOAD,2023-09-18 14:00:01,15.45761036,0.0003281,70.0003,164.004,262.2018,295.498,-0.019073,-0.00845385,0.0,0 STARLINK-5224,1 55397U 23014G   23261.58334491 -.00845385  00000-0 -19073-1 0  9996,2 55397  70.0003 164.0040 0003281 262.2018 295.4980 15.45761036  6024,6807.28,93.158,431.378,426.911,0.0
55397.0,STARLINK-5224,PAYLOAD,2023-09-18 22:00:00,15.45159025,0.0003332,70.0005,163.1007,262.9755,348.7198,-0.02148,-0.00937568,0.0,0 STARLINK-5224,1 55397U 23014G   23261.91667824 -.00937568  00000-0 -21480-1 0  9992,2 55397  70.0005 163.1007 0003332 262.9755 348.7198 15.45159025  5965,6809.048,93.194,433.182,428.644,0.0
55397.0,STARLINK-5224,PAYLOAD,2023-09-19 06:00:00,15.44500701,0.0003397,69.9999,162.198,267.0967,37.8277,-0.021666,-0.00925677,0.0,0 STARLINK-5224,1 55397U 23014G   23262.25001157 -.00925677  00000-0 -21666-1 0  9995,2 55397  69.9999 162.1980 0003397 267.0967  37.8277 15.44500701 36378,6810.983,93.234,435.161,430.534,0.0
55397.0,STARLINK-5224,PAYLOAD,2023-09-20 06:00:00,15.42543306,0.000328,69.9997,159.4956,268.1594,191.7561,-0.023118,-0.00924399,0.0,0 STARLINK-5224,1 55397U 23014G   23263.25001157 -.00924399  00000-0 -23118-1 0  9990,2 55397  69.9997 159.4956 0003280 268.1594 191.7561 15.42543306 36526,6816.743,93.352,440.844,436.372,0.0
55397.0,STARLINK-5224,PAYLOAD,2023-09-20 14:00:01,15.41850646,0.0003291,69.9996,158.5968,260.7624,249.2626,-0.021887,-0.00860213,0.0,0 STARLINK-5224,1 55397U 23014G   23263.58334491 -.00860213  00000-0 -21887-1 0  9991,2 55397  69.9996 158.5968 0003291 260.7624 249.2626 15.41850646  6033,6818.785,93.394,442.894,438.406,0.0
55397.0,STARLINK-5224,PAYLOAD,2023-09-20 22:00:00,15.41237835,0.0003345,69.9997,157.6987,263.173,296.1591,-0.024245,-0.00927696,0.0,0 STARLINK-5224,1 55397U 23014G   23263.91667824 -.00927696  00000-0 -24245-1 0  9997,2 55397  69.9997 157.6987 0003345 263.1730 296.1591 15.41237835  5962,6820.592,93.431,444.738,440.175,0.0
55397.0,STARLINK-5224,PAYLOAD,2023-09-21 06:00:00,15.40588438,0.0003333,69.9993,156.8015,266.7616,341.1022,-0.024851,-0.00930315,0.0,0 STARLINK-5224,1 55397U 23014G   23264.25001157 -.00930315  00000-0 -24851-1 0  9991,2 55397  69.9993 156.8015 0003333 266.7616 341.1022 15.40588438 36680,6822.508,93.471,446.647,442.1,0.0
55397.0,STARLINK-5224,PAYLOAD,2023-09-21 14:00:01,15.39794026,0.0002786,69.9997,155.9053,263.057,32.6189,-0.019511,-0.00717154,0.0,0 STARLINK-5224,1 55397U 23014G   23264.58334491 -.00717154  00000-0 -19511-1 0  9998,2 55397  69.9997 155.9053 0002786 263.0570  32.6189 15.39794026  6038,6824.855,93.519,448.621,444.818,0.0
55397.0,STARLINK-5224,PAYLOAD,2023-09-22 00:00:02,15.3911077,0.0003107,69.9997,154.7864,273.1564,171.1149,-0.025573,-0.00913131,0.0,0 STARLINK-5224,1 55397U 23014G   23265.00002315 -.00913131  00000-0 -25573-1 0  9991,2 55397  69.9997 154.7864 0003107 273.1564 171.1149 15.39110770  6020,6826.875,93.561,450.861,446.618,0.0
55397.0,STARLINK-5224,PAYLOAD,2023-09-22 14:00:01,15.37934788,0.0003344,69.9998,153.2218,267.913,166.2763,-0.02476,-0.00855407,0.0,0 STARLINK-5224,1 55397U 23014G   23265.58334491 -.00855407  00000-0 -24760-1 0  9995,2 55397  69.9998 153.2218 0003344 267.9130 166.2763 15.37934788 36886,6830.354,93.632,454.503,449.935,0.0
55397.0,STARLINK-5224,PAYLOAD,2023-09-22 22:00:00,15.37329745,0.0003402,70.0001,152.3291,275.312,203.4887,-0.027914,-0.00938186,0.0,0 STARLINK-5224,1 55397U 23014G   23265.91667824 -.00938186  00000-0 -27914-1 0  9991,2 55397  70.0001 152.3291 0003402 275.3120 203.4887 15.37329745  5880,6832.146,93.669,456.336,451.687,0.0
55397.0,STARLINK-5224,PAYLOAD,2023-09-23 06:00:00,15.36680653,0.0003273,69.9997,151.437,276.5293,246.1098,-0.028619,-0.00941505,0.0,0 STARLINK-5224,1 55397U 23014G   23266.25001157 -.00941505  00000-0 -28619-1 0  9992,2 55397  69.9997 151.4370 0003273 276.5293 246.1098 15.36680653 36989,6834.07,93.708,458.172,453.698,0.0
55397.0,STARLINK-5224,PAYLOAD,2023-09-23 14:00:01,15.35983981,0.0003232,69.9998,150.546,268.4758,297.2311,-0.026623,-0.00862787,0.0,0 STARLINK-5224,1 55397U 23014G   23266.58334491 -.00862787  00000-0 -26623-1 0  9995,2 55397  69.9998 150.5460 0003232 268.4758 297.2311 15.35983981  5981,6836.136,93.751,460.211,455.792,0.0
55397.0,STARLINK-5224,PAYLOAD,2023-09-24 06:00:00,15.34729893,0.0003338,69.9999,148.7665,272.9635,16.5007,-0.030839,-0.009519,0.0,0 STARLINK-5224,1 55397U 23014G   23267.25001157 -.00951900  00000-0 -30839-1 0  9990,2 55397  69.9999 148.7665 0003338 272.9635  16.5007 15.34729893 37145,6839.86,93.828,464.008,459.442,0.0
55397.0,STARLINK-5224,PAYLOAD,2023-09-24 14:00:01,15.34024394,0.0003373,70.0001,147.8783,267.0267,63.1617,-0.028136,-0.00856908,0.0,0 STARLINK-5224,1 55397U 23014G   23267.58334491 -.00856908  00000-0 -28136-1 0  9995,2 55397  70.0001 147.8783 0003373 267.0267  63.1617 15.34024394  6064,6841.957,93.871,466.13,461.514,0.0
55397.0,STARLINK-5224,PAYLOAD,2023-09-24 22:00:00,15.33408345,0.0003383,70.0003,146.9907,272.493,97.619,-0.031191,-0.00925464,0.0,0 STARLINK-5224,1 55397U 23014G   23267.91667824 -.00925464  00000-0 -31191-1 0  9990,2 55397  70.0003 146.9907 0003383 272.4930  97.6190 15.33408345 37245,6843.789,93.908,467.969,463.339,0.0
55397.0,STARLINK-5224,PAYLOAD,2023-09-25 14:00:01,15.32070656,0.0003302,70.0003,145.2184,269.1734,178.5174,-0.030057,-0.00860304,0.0,0 STARLINK-5224,1 55397U 23014G   23268.58335648 -.00860304  00000-0 -30057-1 0  9991,2 55397  70.0003 145.2184 0003302 269.1734 178.5174 15.32070656  6066,6847.772,93.99,471.898,467.376,0.0
55397.0,STARLINK-5224,PAYLOAD,2023-09-26 00:00:00,15.31263027,0.0003199,70.0003,144.1125,273.4528,311.0337,-0.031636,-0.00881087,0.0,0 STARLINK-5224,1 55397U 23014G   23269.00001157 -.00881087  00000-0 -31636-1 0  9999,2 55397  70.0003 144.1125 0003199 273.4528 311.0337 15.31263027  6028,6850.18,94.04,474.236,469.854,0.0
55397.0,STARLINK-5224,PAYLOAD,2023-09-26 06:00:00,15.30819911,0.0003109,70.0,143.4497,274.9263,247.0704,-0.035191,-0.00971748,0.0,0 STARLINK-5224,1 55397U 23014G   23269.25001157 -.00971748  00000-0 -35191-1 0  9990,2 55397  70.0000 143.4497 0003109 274.9263 247.0704 15.30819911 37457,6851.502,94.067,475.497,471.237,0.0
55397.0,STARLINK-5224,PAYLOAD,2023-09-26 14:00:01,15.30119936,0.0003191,70.0002,142.5668,267.5478,290.5397,-0.032276,-0.00868522,0.0,0 STARLINK-5224,1 55397U 23014G   23269.58335648 -.00868522  00000-0 -32276-1 0  9997,2 55397  70.0002 142.5668 0003191 267.5478 290.5397 15.30119936  5957,6853.591,94.11,477.643,473.269,0.0
55397.0,STARLINK-5224,PAYLOAD,2023-09-26 22:00:00,15.29482415,0.0003273,70.0001,141.6846,271.8664,321.3957,-0.034454,-0.00905756,0.0,0 STARLINK-5224,1 55397U 23014G   23269.91667824 -.00905756  00000-0 -34454-1 0  9999,2 55397  70.0001 141.6846 0003273 271.8664 321.3957 15.29482415 37559,6855.495,94.149,479.604,475.117,0.0
55397.0,STARLINK-5224,PAYLOAD,2023-09-27 14:00:01,15.2816701,0.0003388,70.0,139.9228,266.8721,34.5091,-0.034475,-0.00873116,0.0,0 STARLINK-5224,1 55397U 23014G   23270.58334491 -.00873116  00000-0 -34475-1 0  9992,2 55397  70.0000 139.9228 0003388 266.8721  34.5091 15.28167010  6005,6859.429,94.231,483.618,478.97,0.0
55397.0,STARLINK-5224,PAYLOAD,2023-09-27 22:00:00,15.27526982,0.0003412,69.9998,139.0433,272.2429,62.031,-0.036688,-0.00908056,0.0,0 STARLINK-5224,1 55397U 23014G   23270.91667824 -.00908056  00000-0 -36688-1 0  9998,2 55397  69.9998 139.0433 0003412 272.2429  62.0310 15.27526982 37708,6861.345,94.27,485.551,480.869,0.0
55397.0,STARLINK-5224,PAYLOAD,2023-09-28 16:00:30,15.26078726,0.0003246,69.9998,137.0661,269.2937,228.0109,-0.039011,-0.00934199,0.0,0 STARLINK-5224,1 55397U 23014G   23271.66702546 -.00934199  00000-0 -39011-1 0  9992,2 55397  69.9998 137.0661 0003246 269.2937 228.0109 15.26078726  6011,6865.685,94.359,489.779,485.322,0.0
